[
    {
        "Altitude(m)": 622200.1492423101,
        "Argument of Periapsis(deg)": 0.0,
        "Eccentricity": 0.0,
        "Inclination(deg)": 60.0,
        "Latitude(deg)": -52.1626542616227,
        "Longitude(deg)": -102.63928559692042,
        "Mean Anomaly(deg)": 294.5455,
        "RAAN(deg)": 45.0,
        "Satellite Name": "Test1 216",
        "Satellite Number": 216,
        "Semi-Major Axis(m)": 6980739.136638005,
        "Time(s)": 0
    },
    {
        "Altitude(m)": 622058.3172649249,
        "Argument of Periapsis(deg)": 0.00010418945913296404,
        "Eccentricity": 0.0,
        "Inclination(deg)": 60.0,
        "Latitude(deg)": -51.799404312007475,
        "Longitude(deg)": -101.8712252474762,
        "Mean Anomaly(deg)": 295.1656061454619,
        "RAAN(deg)": 44.99957995086026,
        "Satellite Name": "Test1 216",
        "Satellite Number": 216,
        "Semi-Major Axis(m)": 6980739.136638005,
        "Time(s)": 10
    }
]